ONEWEB-0269             
1 48987U 21060W   24034.92867192  .00000109  00000+0  25038-3 0  9992
2 48987  87.9047  40.8000 0001806  92.4842 267.6496 13.16596050125902
ONEWEB-0270             
1 48988U 21060X   24034.94610264  .00000084  00000+0  18692-3 0  9991
2 48988  87.9043  40.7848 0002376  79.8285 280.3114 13.16596256125942
ONEWEB-0271             
1 48989U 21060Y   24034.93342018  .00000094  00000+0  21215-3 0  9996
2 48989  87.9044  40.7624 0002280  87.7935 272.3457 13.16593095125949
ONEWEB-0272             
1 48990U 21060Z   24034.57560168 -.00000057  00000+0 -18241-3 0  9992
2 48990  87.9045  40.8610 0002183  90.8842 269.2539 13.16592772125848
ONEWEB-0273             
1 48991U 21060AA  24034.74977205 -.00000027  00000+0 -10470-3 0  9999
2 48991  87.9041  40.8137 0002068  85.7334 274.4033 13.16593594125840
ONEWEB-0274             
1 48992U 21060AB  24034.92708816  .00000086  00000+0  19073-3 0  9991
2 48992  87.9051  40.7832 0002235 104.2365 255.9014 13.16593165125904
ONEWEB-0275             
1 48993U 21060AC  24034.91600532  .00000110  00000+0  25390-3 0  9994
2 48993  87.9043  40.7777 0002014  86.2608 273.8753 13.16592550125836
ONEWEB-0276             
1 48994U 21060AD  24034.94925744  .00000031  00000+0  46780-4 0  9992
2 48994  87.9045  40.7665 0002156  83.3561 276.7816 13.16594553125857
ONEWEB-0277             
1 48995U 21060AE  24034.50594609  .00000004  00000+0 -22072-4 0  9996
2 48995  87.9043  40.8938 0002432  85.8060 274.3349 13.16593651125783
ONEWEB-0278             
1 48996U 21060AF  24034.57243758  .00000016  00000+0  74019-5 0  9991
2 48996  87.9044  40.8386 0001552  82.9356 277.1951 13.16595389127232
ONEWEB-0279             
1 48997U 21060AG  24034.58035966 -.00000003  00000+0 -41240-4 0  9990
2 48997  87.9043  40.8353 0001855  89.4238 270.7105 13.16593625125850
ONEWEB-0280             
1 48998U 21060AH  24034.74660645 -.00000004  00000+0 -45157-4 0  9999
2 48998  87.9043  40.8024 0002543  89.7526 270.3896 13.16593990125818
ONEWEB-0281             
1 48999U 21060AJ  24034.75292663  .00000025  00000+0  30561-4 0  9996
2 48999  87.9041  40.8040 0001890  97.0124 263.1222 13.16592829125885
ONEWEB-0282             
1 49000U 21060AK  24034.93501384  .00000127  00000+0  29840-3 0  9993
2 49000  87.9046  40.7843 0002160  81.0473 279.0903 13.16594943125886
ONEWEB-0283             
1 49001U 21060AL  24034.92394154  .00000113  00000+0  26316-3 0  9998
2 49001  87.9043  40.7944 0002180  90.3763 269.7617 13.16595257125891
ONEWEB-0284             
1 49002U 21060AM  24034.91758546  .00000122  00000+0  28541-3 0  9999
2 49002  87.9035  40.7872 0001991  83.9973 276.1385 13.16593077125873
ONEWEB-0285             
1 49075U 21075A   24034.83670016 -.00000343  00000+0 -98803-3 0  9996
2 49075  87.9038 162.6448 0001618 102.1476 257.9834 13.12441465121834
ONEWEB-0286             
1 49076U 21075B   24034.88421315  .00000442  00000+0  11921-2 0  9991
2 49076  87.9036 162.6422 0001298 117.8955 242.2305 13.12441437121192
ONEWEB-0287             
1 49077U 21075C   24034.86170368  .00000025  00000+0  31236-4 0  9999
2 49077  87.9238 177.7502 0001151  96.4575 263.6688 13.17649271119808
ONEWEB-0288             
1 49078U 21075D   24034.86833849  .00000264  00000+0  69723-3 0  9996
2 49078  87.9035 162.6498 0001439 100.8086 259.3205 13.12442419121818
ONEWEB-0289             
1 49079U 21075E   24034.89016297 -.00000285  00000+0 -76824-3 0  9995
2 49079  87.9236 177.7703 0001785 102.2311 257.9020 13.17648657120386
ONEWEB-0290             
1 49080U 21075F   24034.41715745  .00000037  00000+0  61176-4 0  9997
2 49080  87.9236 177.8265 0001380  83.9598 276.1691 13.17649401119737
ONEWEB-0291             
1 49081U 21075G   24034.93289561  .00000034  00000+0  53203-4 0  9996
2 49081  87.9234 177.7522 0001243  93.9619 266.1655 13.17650690119791
ONEWEB-0293             
1 49082U 21075H   24034.88225509  .00000026  00000+0  34619-4 0  9994
2 49082  87.9237 177.7695 0001406  90.6847 269.4445 13.17649992119813
ONEWEB-0294             
1 49083U 21075J   24034.87469700  .00000474  00000+0  12819-2 0  9990
2 49083  87.9034 162.6475 0001200  79.1197 281.0066 13.12442939121202
ONEWEB-0295             
1 49084U 21075K   24034.88385344  .00000040  00000+0  70986-4 0  9993
2 49084  87.9238 177.7449 0001032  99.9661 260.1587 13.17649098119771
ONEWEB-0296             
1 49085U 21075L   24034.85721065 -.00000039  00000+0 -14258-3 0  9994
2 49085  87.9037 162.6495 0000798  96.0990 264.0229 13.12442730121200
ONEWEB-0297             
1 49086U 21075M   24034.88897585  .00000345  00000+0  92486-3 0  9996
2 49086  87.9046 162.6398 0001617 108.3628 251.7676 13.12440899121819
ONEWEB-0298             
1 49087U 21075N   24034.88700983  .00000026  00000+0  34472-4 0  9990
2 49087  87.9239 177.7637 0001331 106.3877 253.7401 13.17651027119800
ONEWEB-0299             
1 49088U 21075P   24034.88859035  .00000024  00000+0  29748-4 0  9992
2 49088  87.9234 177.7388 0001268 108.9989 251.1280 13.17650187119780
ONEWEB-0300             
1 49089U 21075Q   24034.87945092  .00000476  00000+0  12874-2 0  9992
2 49089  87.9035 162.6439 0001690 114.3979 245.7326 13.12441622121835
ONEWEB-0301             
1 49090U 21075R   24034.86356774  .00000190  00000+0  49321-3 0  9997
2 49090  87.9035 162.6493 0001919 108.8092 251.3245 13.12442924121193
ONEWEB-0302             
1 49091U 21075S   24034.85086047 -.00000241  00000+0 -70420-3 0  9993
2 49091  87.9037 162.6492 0001307 100.4565 259.6711 13.12446483121170
ONEWEB-0304             
1 49092U 21075T   24034.86328984  .00000033  00000+0  51302-4 0  9990
2 49092  87.9239 177.7542 0001194  99.8377 260.2889 13.17649580119757
ONEWEB-0305             
1 49093U 21075U   24034.93129658  .00000098  00000+0  21866-3 0  9998
2 49093  87.9234 177.7310 0001102 117.6669 242.4574 13.17651060119791
ONEWEB-0308             
1 49094U 21075V   24034.84449979 -.00000385  00000+0 -11044-2 0  9997
2 49094  87.9036 162.6513 0001696 106.7769 253.3545 13.12442059122185
ONEWEB-0309             
1 49095U 21075W   24034.93605674  .00000006  00000+0 -16444-4 0  9994
2 49095  87.9240 177.7303 0001308  73.1222 287.0053 13.17649082119766
ONEWEB-0310             
1 49096U 21075X   24034.85880213  .00000001  00000+0 -31533-4 0  9991
2 49096  87.9045 162.6438 0001572  96.8249 263.3059 13.12443075121817
ONEWEB-0311             
1 49097U 21075Y   24034.86643228  .00000015  00000+0  43834-5 0  9998
2 49097  87.9239 177.7447 0001140 116.6420 243.4828 13.17651269120805
ONEWEB-0312             
1 49098U 21075Z   24034.88067055 -.00000282  00000+0 -76013-3 0  9990
2 49098  87.9238 177.7750 0001001  89.3291 270.7955 13.17649042120765
ONEWEB-0313             
1 49099U 21075AA  24034.93447338 -.00000021  00000+0 -88248-4 0  9998
2 49099  87.9239 177.7658 0001128  95.0575 265.0685 13.17648692119780
ONEWEB-0314             
1 49100U 21075AB  24034.92813527  .00000048  00000+0  90021-4 0  9996
2 49100  87.9237 177.7302 0000937  95.8074 264.3164 13.17649981119759
ONEWEB-0315             
1 49101U 21075AC  24034.90964119 -.00000284  00000+0 -82351-3 0  9999
2 49101  87.9034 162.6330 0001614 109.3835 250.7468 13.12443163121802
ONEWEB-0316             
1 49102U 21075AD  24034.85026241  .00000007  00000+0 -14217-4 0  9998
2 49102  87.9252 147.4651 0001507 112.8312 247.2979 13.18684077124305
ONEWEB-0317             
1 49103U 21075AE  24034.90326790 -.00000201  00000+0 -59391-3 0  9995
2 49103  87.9038 162.6418 0001604  95.2512 264.8800 13.12440444121826
ONEWEB-0318             
1 49104U 21075AF  24034.84710891  .00000035  00000+0  55340-4 0  9992
2 49104  87.9249 147.4626 0001472 116.0969 244.0314 13.18686603124259
ONEWEB-0319             
1 49105U 21075AG  24034.86802221  .00000029  00000+0  40785-4 0  9994
2 49105  87.9239 177.7703 0001083 122.3996 237.7241 13.17649906120774
ONEWEB-0323             
1 49106U 21075AH  24034.89374019  .00000213  00000+0  55686-3 0  9997
2 49106  87.9039 162.6313 0001328 107.1752 252.9522 13.12440129121184
ONEWEB-0329             
1 49107U 21075AJ  24034.87595853  .00002967  00000+0  76073-2 0  9997
2 49107  87.9239 177.7721 0001051 135.3118 224.8099 13.17638528120755
ONEWEB-0330             
1 49108U 21075AK  24034.87752163  .00000014  00000+0  22197-5 0  9999
2 49108  87.9236 177.7714 0001246  89.1402 270.9872 13.17649067120798
ONEWEB-0292             
1 49186U 21083A   24034.77712312 -.00000005  00000+0 -48966-4 0  9998
2 49186  87.9018 132.3177 0002339 107.7450 252.3935 13.13471197117452
ONEWEB-0303             
1 49187U 21083B   24034.84393801  .00000040  00000+0  68066-4 0  9995
2 49187  87.9248 147.4619 0001579 114.4651 245.6646 13.18683984116063
ONEWEB-0306             
1 49188U 21083C   24034.83445108 -.00000243  00000+0 -64869-3 0  9996
2 49188  87.9244 147.4524 0001748 116.9362 243.1948 13.18686306116103
ONEWEB-0307             
1 49189U 21083D   24034.77235811 -.00000023  00000+0 -97058-4 0  9991
2 49189  87.9011 132.3181 0001691 103.7739 256.3578 13.13470197117455
ONEWEB-0320             
1 49190U 21083E   24034.84078928 -.00000021  00000+0 -85892-4 0  9996
2 49190  87.9251 147.4736 0001729 106.1315 254.0007 13.18686041116065
ONEWEB-0321             
1 49191U 21083F   24034.66444142 -.00000033  00000+0 -11349-3 0  9990
2 49191  87.9156  86.5192 0002165  93.4631 266.6750 13.20770802122718
ONEWEB-0322             
1 49192U 21083G   24034.76760242 -.00000147  00000+0 -43623-3 0  9990
2 49192  87.9013 132.3077 0002018  91.9050 268.2310 13.13469126117448
ONEWEB-0324             
1 49193U 21083H   24034.82655965  .00000041  00000+0  70696-4 0  9995
2 49193  87.9246 147.4593 0001373 100.9922 259.1365 13.18686044116082
ONEWEB-0325             
1 49194U 21083J   24034.83129804  .00000010  00000+0 -71807-5 0  9998
2 49194  87.9249 147.4708 0001747 105.9436 254.1889 13.18680941116091
